PHASE 3B (AO-10)        
1 14129U 83058B   21036.39639676 -.00000349  00000-0  00000-0 0  9999
2 14129  25.8123 176.6049 6060358 307.4302  11.3915  2.05870970255202
UOSAT 2 (UO-11)         
1 14781U 84021B   21036.57702915  .00000116  00000-0  20200-4 0  9990
2 14781  97.5907  42.9314 0009205 146.6979 213.4816 14.83244149966388
LUSAT (LO-19)           
1 20442U 90005G   21036.44933868 -.00000004  00000-0  15233-4 0  9996
2 20442  98.7243 350.8422 0011583 184.1121 175.9969 14.32975317621925
EYESAT A (AO-27)        
1 22825U 93061C   21036.56596955 -.00000002  00000-0  17168-4 0  9990
2 22825  98.9243  50.8944 0009342  62.3436 297.8692 14.30105295427138
ITAMSAT (IO-26)         
1 22826U 93061D   21036.56753685  .00000001  00000-0  18263-4 0  9991
2 22826  98.9184  50.8176 0009739  50.8411 309.3635 14.30442981427373
RADIO ROSTO (RS-15)     
1 23439U 94085A   21036.55475473 -.00000037  00000-0  15882-3 0  9997
2 23439  64.8140 229.2786 0156876 359.0072   1.0519 11.27570447 75467
JAS-2 (FO-29)           
1 24278U 96046B   21036.46089101 -.00000054  00000-0 -21719-4 0  9994
2 24278  98.5820 121.8535 0351066 131.4665 231.7189 13.53101957208397
TECHSAT 1B (GO-32)      
1 25397U 98043D   21036.42207009 -.00000004  00000-0  17930-4 0  9995
2 25397  98.7567 342.4451 0002343  97.1880 262.9565 14.23700608172701
ISS (ZARYA)             
1 25544U 98067A   21036.87443757  .00000241  00000-0  12553-4 0  9994
2 25544  51.6464 272.2088 0002408 339.8619 112.7174 15.48938567268241
PCSAT (NO-44)           
1 26931U 01043C   21036.46563142 -.00000015  00000-0  25879-4 0  9994
2 26931  67.0497 261.0684 0007369 270.3343  89.6914 14.30605162 10365
SAUDISAT 1C (SO-50)     
1 27607U 02058C   21036.35920833  .00000010  00000-0  21809-4 0  9997
2 27607  64.5562  22.2609 0029612  78.4791 281.9634 14.75708572975065
CUTE-1 (CO-55)          
1 27844U 03031E   21036.57309341  .00000056  00000-0  44780-4 0  9994
2 27844  98.6822  46.7740 0010928  99.9784 260.2628 14.22286272913236
CUBESAT XI-IV (CO-57)   
1 27848U 03031J   21036.31607534  .00000039  00000-0  37492-4 0  9998
2 27848  98.6882  47.0889 0010771 112.3786 247.8534 14.21866290913030
MOZHAYETS 4 (RS-22)     
1 27939U 03042A   21036.53454640  .00000176  00000-0  40245-4 0  9995
2 27939  98.1184 174.7243 0012160 342.7545  17.3248 14.66940850928187
CUBESAT XI-V            
1 28895U 05043F   21036.36993467  .00000136  00000-0  35010-4 0  9996
2 28895  98.0373 172.6647 0015480 265.8339  94.1094 14.63861270814683
CUTE-1.7+APD II (CO-65) 
1 32785U 08021C   21036.18722597  .00000250  00000-0  32449-4 0  9992
2 32785  97.5971  20.2816 0014517  82.5951 277.6915 14.88625023692498
DELFI-C3 (DO-64)        
1 32789U 08021G   21036.56547346  .00001496  00000-0  99845-4 0  9991
2 32789  97.3929  76.9428 0010744 230.5923 129.4355 15.08462545696949
SEEDS II (CO-66)        
1 32791U 08021J   21036.18456552  .00000516  00000-0  57166-4 0  9992
2 32791  97.5596  26.3060 0014421  51.1659 309.0845 14.91266868693065
YUBILEINY (RS-30)       
1 32953U 08025A   21036.39631141  .00000028  00000-0  12906-3 0  9998
2 32953  82.5061 133.0705 0018425 263.5901  96.3080 12.43099624576577
KKS-1 (KISEKI)          
1 33499U 09002H   21036.58518073  .00000105  00000-0  23297-4 0  9991
2 33499  98.2877 263.4603 0010333 100.3731 259.8642 14.75614131646960
SWISSCUBE               
1 35932U 09051B   21036.52500159  .00000136  00000-0  41562-4 0  9998
2 35932  98.6070 232.3332 0008405 127.8193 232.3766 14.56484386603759
BEESAT-1                
1 35933U 09051C   21036.49611410  .00000106  00000-0  34773-4 0  9991
2 35933  98.6048 234.1565 0006475 137.9578 222.2117 14.56548660603829
ITUPSAT1                
1 35935U 09051E   21036.49066115  .00000102  00000-0  34467-4 0  9995
2 35935  98.6153 234.3141 0008791 140.3211 219.8630 14.55686263603570
XIWANG-1 (HOPE-1)       
1 36122U 09072B   21036.43444624 -.00000060  00000-0 -45301-4 0  9990
2 36122 100.1162  22.6558 0007944  50.6790 309.5027 13.16358657535527
JUGNU                   
1 37839U 11058B   21036.46288941  .00000317  00000-0  27107-4 0  9991
2 37839  19.9617 309.6841 0018986  77.5831  77.0068 14.12702550481771
SRMSAT                  
1 37841U 11058D   21036.38012715  .00000293  00000-0  15799-4 0  9996
2 37841  19.9735  19.3285 0011635 282.8904 231.1969 14.10684108481047
M-CUBED & EXP-1 PRIME   
1 37855U 11061F   21036.53695173  .00001510  00000-0  80357-4 0  9992
2 37855 101.7260 251.5302 0168403 102.9030 259.1051 15.07165786506305
STRAND-1                
1 39090U 13009E   21036.49971298  .00000022  00000-0  22731-4 0  9998
2 39090  98.4365 241.7260 0008351 316.8304  43.2226 14.35167233416119
SOMP                    
1 39134U 13015E   21036.00360760  .00001483  00000-0  73629-4 0  9991
2 39134  64.8609 242.9903 0010685 220.2265 139.8074 15.21950879431055
BEESAT-3                
1 39135U 13015F   21036.25576570  .00001030  00000-0  58612-4 0  9990
2 39135  64.8651 269.2300 0013881 203.0737 156.9768 15.18885395430561
BEESAT-2                
1 39136U 13015G   21036.06728692  .00001146  00000-0  64953-4 0  9997
2 39136  64.8732 275.6927 0028316 261.3767  98.4151 15.18270106430415
ZACUBE-1 (TSHEPISOSAT)  
1 39417U 13066B   21036.54058524  .00000252  00000-0  37871-4 0  9994
2 39417  97.5816  27.7956 0057454 232.7985 126.7977 14.81422497389549
GOMX-1                  
1 39430U 13066Q   21036.56556502  .00000165  00000-0  38644-4 0  9992
2 39430  97.8098 327.2448 0150826 169.7705 190.6615 14.59529735383809
CUBEBUG-2 (LO-74)       
1 39440U 13066AA  21036.54688855  .00000303  00000-0  48984-4 0  9990
2 39440  97.6597  12.5354 0078749 304.2172  55.1594 14.76156756386968
FUNCUBE-1 (AO-73)       
1 39444U 13066AE  21036.53707980  .00000294  00000-0  42227-4 0  9997
2 39444  97.5735  30.1248 0056692 223.6544 136.0178 14.82309144387891
UWE-3                   
1 39446U 13066AG  21036.47483972  .00000253  00000-0  40195-4 0  9991
2 39446  97.6225  19.5249 0068267 269.7643  89.5746 14.78691008387006
SPROUT                  
1 39770U 14029E   21036.56776057  .00000836  00000-0  96782-4 0  9990
2 39770  97.9077 148.0858 0007769 284.2109  75.8221 14.88162451363722
UNISAT-6                
1 40012U 14033C   21036.55894426  .00000185  00000-0  34810-4 0  9997
2 40012  97.6863 245.8152 0057461 328.0904  31.6829 14.74236951356762
DUCHIFAT-1              
1 40021U 14033M   21036.55209704  .00000481  00000-0  54258-4 0  9993
2 40021  97.9620 335.4557 0011506 236.3892 123.6229 14.91170122360620
QB50P1                  
1 40025U 14033R   21036.53898658  .00000372  00000-0  45194-4 0  9995
2 40025  97.9272 326.9462 0011015 251.1121 108.8902 14.89322307359781
NUDT-PHONESAT           
1 40900U 15049B   21036.51956098  .00003035  00000-0  12281-3 0  9995
2 40900  97.4256  51.5530 0010669 239.2316 272.0679 15.25437314298709
ZDPS 2A                 
1 40901U 15049C   21036.66936513  .00001656  00000-0  82336-4 0  9998
2 40901  97.4632  45.3904 0011583 283.9895 187.9859 15.19003018297962
ZDPS 2B                 
1 40902U 15049D   21036.52020223  .00001717  00000-0  85176-4 0  9999
2 40902  97.4647  42.5312 0011492 281.4758 195.3972 15.19020143297913
XW-2A                   
1 40903U 15049E   21036.49206750  .00003084  00000-0  68606-4 0  9995
2 40903  97.2566  91.3175 0014142 131.1953 341.1658 15.44336178302425
KAITUO 1A               
1 40904U 15049F   21036.55125318  .00000528  00000-0  30945-4 0  9998
2 40904  97.4837  40.1708 0013148 299.8362 175.6333 15.15990128297550
2015-049G               
1 40905U 15049G   21036.55046131  .00000406  00000-0  25383-4 0  9999
2 40905  97.4956  37.2864 0014164 297.7185 178.2797 15.14815835297364
XW-2C                   
1 40906U 15049H   21036.54280544  .00000932  00000-0  51260-4 0  9994
2 40906  97.4830  40.5873 0013066 287.9589 190.2962 15.16466852297576
XW-2D                   
1 40907U 15049J   21036.56312362  .00000785  00000-0  43373-4 0  9993
2 40907  97.4821  40.3612 0012415 284.4003 192.0042 15.16749454297601
LILACSAT-2              
1 40908U 15049K   21036.53228428  .00000711  00000-0  42389-4 0  9995
2 40908  97.5002  38.3625 0014363 299.2281 176.0654 15.14278735297261
XW-2F                   
1 40910U 15049M   21036.55419587  .00001391  00000-0  70506-4 0  9995
2 40910  97.4717  43.2621 0012859 270.0522 207.2784 15.18582060297703
XW-2B                   
1 40911U 15049N   21036.55851981  .00000822  00000-0  45374-4 0  9997
2 40911  97.4830  41.0513 0012370 285.8869 188.8377 15.16670070297497
KAITUO 1B               
1 40912U 15049P   21036.57189314  .00001538  00000-0  72289-4 0  9994
2 40912  97.4474  47.6079 0012953 241.0785 238.6393 15.21058869298146
TIANWANG 1C (TW-1C)     
1 40926U 15051B   21036.42744726  .00264052  29356-4  64741-3 0  9994
2 40926  97.0452  98.2022 0002564 248.0332 235.6742 15.96113863303684
TIANWANG 1A (TW-1A)     
1 40928U 15051D   21036.56117322  .00004362  00000-0  95933-4 0  9992
2 40928  97.0897  64.6643 0011485  62.1894  88.8618 15.44441175301327
LAPAN-A2                
1 40931U 15052B   21036.09689164  .00000656  00000-0  21404-5 0  9998
2 40931   5.9994 116.3646 0014012 332.0468  27.8871 14.76661090289705
E-ST@R-II               
1 41459U 16025D   21036.41511860  .00004205  00000-0  20817-3 0  9997
2 41459  98.1220 164.9850 0163308 147.3398 213.8058 15.07415375262528
AAUSAT 4                
1 41460U 16025E   21036.30163658  .00005354  00000-0  25417-3 0  9992
2 41460  98.1216 168.1099 0150513 133.5392 227.8498 15.10177134262762
NUSAT-1 (FRESCO)        
1 41557U 16033B   21036.54695135  .00001776  00000-0  65929-4 0  9991
2 41557  97.3957 131.2966 0012532 350.0895 135.4003 15.28846781261370
BEESAT-4                
1 41619U 16040W   21036.39240508  .00001850  00000-0  77083-4 0  9998
2 41619  97.2898  96.1027 0012494  80.3816 279.8833 15.24876068244880
